     2.100          NAVIGATION                              RINEX VERSION / TYPE
fic2rin                                 10/14/2009 01:30:17 PGM / RUN BY / DATE
                                                            END OF HEADER
16 09 10 13 19 59 44.0  .283215194941D-05 -.409272615798D-11  .000000000000D+00
     .120000000000D+02 -.764375000000D+02  .457269047091D-08 -.101121047645D+01
    -.423565506935D-05  .530543876812D-02  .480376183987D-05  .515363521957D+04
     .244784000000D+06 -.279396772385D-07  .130956014880D+01 -.156462192535D-06
     .969355076501D+00  .289406250000D+03 -.268539062118D+00 -.829034532616D-08
    -.650027076237D-10  .100000000000D+01  .155300000000D+04  .000000000000D+00
     .240000000000D+01  .000000000000D+00 -.977888703346D-08  .120000000000D+02
     .243606000000D+06  .400000000000D+01
 8 09 10 13 21 59 28.0 -.225072260946D-03 -.159161572810D-11  .000000000000D+00
     .123000000000D+03  .584062500000D+02  .388766193672D-08  .174425139720D+01
     .323541462421D-05  .110031549120D-01  .576861202717D-05  .515361883545D+04
     .251968000000D+06  .186264514923D-08  .302782017161D+00  .173225998878D-06
     .990565197199D+00  .283625000000D+03  .303878436664D+01 -.795104547867D-08
     .174650132022D-09  .100000000000D+01  .155300000000D+04  .000000000000D+00
     .240000000000D+01  .000000000000D+00 -.372529029846D-08  .123000000000D+03
     .244806000000D+06  .400000000000D+01
16 09 10 13 21 59 44.0  .280328094959D-05 -.409272615798D-11  .000000000000D+00
     .420000000000D+02 -.816250000000D+02  .455161816459D-08  .390381415696D-01
    -.420585274696D-05  .530613400042D-02  .468641519547D-05  .515363658524D+04
     .251984000000D+06  .121071934700D-06  .130950068850D+01 -.372529029846D-07
     .969353715987D+00  .291468750000D+03 -.268583618214D+00 -.841892211047D-08
    -.176793078427D-09  .100000000000D+01  .155300000000D+04  .000000000000D+00
     .240000000000D+01  .000000000000D+00 -.977888703346D-08  .420000000000D+02
     .244806000000D+06  .400000000000D+01
18 09 10 13 21 59 44.0  .199587084353D-04  .284217094304D-11  .000000000000D+00
     .190000000000D+02 -.221250000000D+02  .547272796109D-08  .240502968588D+00
    -.109337270260D-05  .109332804568D-01  .595301389694D-05  .515362944412D+04
     .251984000000D+06  .167638063431D-07 -.182897532638D+01  .147148966789D-06
     .940118522636D+00  .253812500000D+03 -.236891078856D+01 -.878572310349D-08
    -.559666169485D-09  .100000000000D+01  .155300000000D+04  .000000000000D+00
     .240000000000D+01  .000000000000D+00 -.107102096081D-07  .190000000000D+02
     .244806000000D+06  .400000000000D+01
32 09 10 13 21 59 44.0  .178452115506D-03 -.727595761418D-11  .000000000000D+00
     .300000000000D+02 -.314375000000D+02  .474626912973D-08 -.314098004201D+01
    -.157393515110D-05  .132503777277D-01  .605173408985D-05  .515369122314D+04
     .251984000000D+06  .100582838058D-06 -.177032870925D+01  .169500708580D-06
     .961820293527D+00  .260000000000D+03 -.110259072239D+01 -.807819363205D-08
    -.480734310228D-09  .100000000000D+01  .155300000000D+04  .000000000000D+00
     .240000000000D+01  .000000000000D+00 -.325962901115D-08  .300000000000D+02
     .244806000000D+06  .400000000000D+01
 1 09 10 13 22  0  0.0 -.597783364356D-04 -.136424205266D-11  .000000000000D+00
     .102000000000D+03 -.784062500000D+02  .601453624386D-08  .328634510889D+00
    -.422634184361D-05  .381494243629D-02  .518932938576D-05  .515369742393D+04
     .252000000000D+06 -.353902578354D-07  .127934547913D+01  .106170773506D-06
     .961896461820D+00  .282000000000D+03  .977997228482D+00 -.843749431265D-08
    -.195365280605D-09  .100000000000D+01  .155300000000D+04  .000000000000D+00
     .240000000000D+01  .630000000000D+02 -.190921127796D-07  .102000000000D+03
     .244806000000D+06  .400000000000D+01
 2 09 10 13 22  0  0.0  .180740375072D-03  .363797880709D-11  .000000000000D+00
     .410000000000D+02  .596875000000D+02  .530307803734D-08 -.217898647023D+01
     .310689210892D-05  .911172782071D-02  .720098614693D-05  .515371823883D+04
     .252000000000D+06 -.186264514923D-06 -.291745541831D+01 -.122934579849D-06
     .941101464608D+00  .231812500000D+03  .290342301447D+01 -.844928051788D-08
     .368943939425D-09  .100000000000D+01  .155300000000D+04  .000000000000D+00
     .240000000000D+01  .000000000000D+00 -.172294676304D-07  .410000000000D+02
     .244806000000D+06  .400000000000D+01
 3 09 10 13 22  0  0.0  .460225623101D-03  .522959453519D-11  .000000000000D+00
     .186000000000D+03 -.676875000000D+02  .510449833713D-08 -.244114331523D+01
    -.376626849174D-05  .125751168234D-01  .113230198622D-04  .515366724396D+04
     .252000000000D+06  .176951289177D-06  .221668360015D+01 -.100582838058D-06
     .926598549737D+00  .139000000000D+03  .952779281321D+00 -.813533886952D-08
     .133934150324D-09  .100000000000D+01  .155300000000D+04  .000000000000D+00
     .340000000000D+01  .000000000000D+00 -.465661287308D-08  .186000000000D+03
     .244806000000D+06  .400000000000D+01
 4 09 10 13 22  0  0.0 -.309609342366D-03 -.177351466846D-10  .000000000000D+00
     .380000000000D+02  .620000000000D+02  .540165357198D-08  .657858149130D+00
     .344589352608D-05  .892383779865D-02  .676698982716D-05  .515355132103D+04
     .252000000000D+06  .931322574615D-08 -.289926957792D+01  .111758708954D-06
     .940280018551D+00  .236812500000D+03  .536379910011D+00 -.863357390872D-08
     .230009580822D-09  .100000000000D+01  .155300000000D+04  .000000000000D+00
     .240000000000D+01  .000000000000D+00 -.605359673500D-08  .380000000000D+02
     .244806000000D+06  .400000000000D+01
 5 09 10 13 22  0  0.0 -.661956146359D-04  .886757334229D-11  .000000000000D+00
     .550000000000D+02 -.208750000000D+02  .484127308703D-08 -.805359390931D+00
    -.112876296043D-05  .152412173338D-02  .639073550701D-05  .515356839943D+04
     .252000000000D+06  .186264514923D-07 -.185933223119D+01  .298023223877D-07
     .961030955597D+00  .257968750000D+03  .225290462378D+00 -.827034449304D-08
    -.453590322429D-09  .100000000000D+01  .155300000000D+04  .000000000000D+00
     .240000000000D+01  .000000000000D+00 -.931322574615D-08  .550000000000D+02
     .244806000000D+06  .400000000000D+01
 6 09 10 13 22  0  0.0  .252471771091D-03  .432009983342D-11  .000000000000D+00
     .530000000000D+02 -.536250000000D+02  .503485257896D-08 -.121080775980D+00
    -.293739140034D-05  .578546605539D-02  .118091702461D-04  .515370293236D+04
     .252000000000D+06 -.745058059692D-07  .228542420134D+01 -.651925802231D-07
     .934080234637D+00  .139250000000D+03 -.123166316090D+01 -.832606109958D-08
     .842892252703D-10  .100000000000D+01  .155300000000D+04  .000000000000D+00
     .240000000000D+01  .000000000000D+00 -.512227416039D-08  .530000000000D+02
     .244806000000D+06  .400000000000D+01
 7 09 10 13 22  0  0.0  .967038795352D-05 -.795807864051D-12  .000000000000D+00
     .390000000000D+02  .596250000000D+02  .434410952103D-08  .239399758951D+01
     .315532088280D-05  .320581370033D-02  .594370067120D-05  .515365046310D+04
     .252000000000D+06 -.465661287308D-07  .239575624818D+00  .800937414169D-07
     .969335016969D+00  .269406250000D+03  .298557501810D+01 -.817141180067D-08
     .320727645308D-09  .100000000000D+01  .155300000000D+04  .000000000000D+00
     .240000000000D+01  .000000000000D+00 -.107102096081D-07  .390000000000D+02
     .244806000000D+06  .400000000000D+01
 9 09 10 13 22  0  0.0  .828220508993D-04  .204636307899D-11  .000000000000D+00
     .160000000000D+02  .595312500000D+02  .422231873367D-08  .152166831196D+01
     .267848372459D-05  .206315180985D-01  .579655170441D-05  .515362404060D+04
     .252000000000D+06 -.186264514923D-08  .206577841276D+00 -.566244125366D-06
     .978213658434D+00  .276062500000D+03  .151709712452D+01 -.819855578847D-08
     .387516141603D-09  .100000000000D+01  .155300000000D+04  .000000000000D+00
     .240000000000D+01  .000000000000D+00 -.558793544769D-08  .160000000000D+02
     .244806000000D+06  .400000000000D+01
10 09 10 13 22  0  0.0 -.258036889136D-04 -.909494701773D-12  .000000000000D+00
     .200000000000D+02 -.222812500000D+02  .493591988659D-08 -.108070375778D+01
    -.116787850857D-05  .861511146650D-02  .625103712082D-05  .515337828636D+04
     .252000000000D+06  .197440385818D-06 -.183229601876D+01  .707805156708D-07
     .956098834086D+00  .256187500000D+03  .617328040316D+00 -.832677541505D-08
    -.456447584303D-09  .100000000000D+01  .155300000000D+04  .000000000000D+00
     .240000000000D+01  .000000000000D+00 -.279396772385D-08  .200000000000D+02
     .244806000000D+06  .400000000000D+01
11 09 10 13 22  0  0.0 -.240979716182D-04 -.181898940355D-11  .000000000000D+00
     .280000000000D+02  .598437500000D+02  .632490631488D-08  .226953322152D+01
     .309757888317D-05  .100225567585D-01  .879913568497D-05  .515370633316D+04
     .252000000000D+06 -.217929482460D-06 -.312451507458D+01 -.210478901863D-06
     .889440835752D+00  .171375000000D+03  .739321586477D+00 -.881322424902D-08
     .461447792581D-09  .100000000000D+01  .155300000000D+04  .000000000000D+00
     .240000000000D+01  .000000000000D+00 -.116415321827D-07  .280000000000D+02
     .244806000000D+06  .400000000000D+01
12 09 10 13 22  0  0.0 -.204913318157D-03  .545696821064D-11  .000000000000D+00
     .900000000000D+02 -.814062500000D+02  .454018911710D-08  .246170632875D+01
    -.439584255219D-05  .307140161749D-02  .535137951374D-05  .515355364609D+04
     .252000000000D+06  .279396772385D-07  .129235060581D+01  .949949026108D-07
     .967994905010D+00  .277250000000D+03 -.577014013281D+00 -.826784438891D-08
    -.206794328100D-09  .100000000000D+01  .155300000000D+04  .000000000000D+00
     .240000000000D+01  .000000000000D+00 -.116415321827D-07  .900000000000D+02
     .244806000000D+06  .400000000000D+01
